{
    "links": {
        "self": "http://www.neowsapp.com/rest/v1/neo/3791306?api_key=iIulBulltgU6a56xZRHN4H3l9WmuAYTsLGpBGhQ2"
    },
    "id": "3791306",
    "neo_reference_id": "3791306",
    "name": "(2017 UL52)",
    "designation": "2017 UL52",
    "nasa_jpl_url": "http://ssd.jpl.nasa.gov/sbdb.cgi?sstr=3791306",
    "absolute_magnitude_h": 27.99,
    "estimated_diameter": {
        "kilometers": {
            "estimated_diameter_min": 0.0067074119,
            "estimated_diameter_max": 0.0149982289
        },
        "meters": {
            "estimated_diameter_min": 6.7074118933,
            "estimated_diameter_max": 14.9982289464
        },
        "miles": {
            "estimated_diameter_min": 0.0041677912,
            "estimated_diameter_max": 0.0093194645
        },
        "feet": {
            "estimated_diameter_min": 22.0059452359,
            "estimated_diameter_max": 49.2067894565
        }
    },
    "is_potentially_hazardous_asteroid": false,
    "close_approach_data": [
        {
            "close_approach_date": "2017-10-20",
            "close_approach_date_full": "2017-Oct-20 07:38",
            "epoch_date_close_approach": 1508485080000,
            "relative_velocity": {
                "kilometers_per_second": "6.1229162854",
                "kilometers_per_hour": "22042.498627525",
                "miles_per_hour": "13696.3514388641"
            },
            "miss_distance": {
                "astronomical": "0.0103063037",
                "lunar": "4.0091521393",
                "kilometers": "1541801.081093119",
                "miles": "958030.7673142822"
            },
            "orbiting_body": "Earth"
        }
    ],
    "orbital_data": {
        "orbit_id": "4",
        "orbit_determination_date": "2017-12-15 08:30:59",
        "first_observation_date": "2017-10-21",
        "last_observation_date": "2017-10-21",
        "data_arc_in_days": null,
        "observations_used": 5,
        "orbit_uncertainty": "9",
        "minimum_orbit_intersection": ".00928034",
        "jupiter_tisserand_invariant": "6.819",
        "epoch_osculation": "2458047.5",
        "eccentricity": ".1699732733080158",
        "semi_major_axis": ".8629841328989446",
        "inclination": "10.53581856478986",
        "ascending_node_longitude": "27.21962114976971",
        "orbital_period": "292.8212855421061",
        "perihelion_distance": ".7162998950172312",
        "perihelion_argument": "191.6862841111371",
        "aphelion_distance": "1.009668370780658",
        "perihelion_time": "2457913.727808099940",
        "mean_anomaly": "164.4620506151583",
        "mean_motion": "1.229418822246902",
        "equinox": "J2000",
        "orbit_class": {
            "orbit_class_type": "ATE",
            "orbit_class_description": "Near-Earth asteroid orbits similar to that of 2062 Aten",
            "orbit_class_range": "a (semi-major axis) < 1.0 AU; q (perihelion) > 0.983 AU"
        }
    },
    "is_sentry_object": false
}